*******************************************************************************
Ephemeris / WWW_USER Wed Apr  4 23:36:32 2018 Pasadena, USA      / Horizons    
*******************************************************************************
Target body name: 20000 Varuna (2000 WR106)       {source: JPL#43}
Center body name: Solar System Barycenter (0)     {source: DE431}
Center-site name: BODY CENTER
*******************************************************************************
Start time      : A.D. 2000-Jan-01 00:00:00.0000 TDB
Stop  time      : A.D. 2010-Jan-01 00:00:00.0000 TDB
Step-size       : 7200 minutes
*******************************************************************************
Center geodetic : 0.00000000,0.00000000,0.0000000 {E-lon(deg),Lat(deg),Alt(km)}
Center cylindric: 0.00000000,0.00000000,0.0000000 {E-lon(deg),Dxy(km),Dz(km)}
Center radii    : (undefined)                                                  
Small perturbers: Yes                             {source: SB431-N16}
Output units    : AU-D                                                         
Output type     : GEOMETRIC cartesian states
Output format   : 2 (position and velocity)
Reference frame : ICRF/J2000.0                                                 
Coordinate systm: Ecliptic and Mean Equinox of Reference Epoch                 
*******************************************************************************
Initial IAU76/J2000 heliocentric ecliptic osculating elements (au, days, deg.):
  EPOCH=  2455916.5 ! 2011-Dec-21.00 (TDB)         Residual RMS= .16813        
   EC= .05531459610692559  QR= 40.69058218230555   TP= 2427361.8920003101      
   OM= 97.27342653370097   W=  270.7582037979943   IN= 17.15468305246891       
  Equivalent ICRF heliocentric equatorial cartesian coordinates (au, au/d):
   X=-1.701603687366000E+01  Y= 3.522123994944818E+01  Z= 1.924663569736001E+01
  VX=-2.311779067237590E-03 VY=-1.120857354096342E-03 VZ= 3.239002240547180E-04
Asteroid physical parameters (km, seconds, rotational period in hours):        
   GM= n.a.                RAD= 450.               ROTPER= 6.3436              
   H= 3.7                  G= .150                 B-V= n.a.                   
                           ALBEDO= .070            STYP= n.a.                  
*******************************************************************************
JDTDB
   X     Y     Z
   VX    VY    VZ
*******************************************************************************
$$SOE
2452654.500000000 = A.D. 2003-Jan-15 00:00:00.0000 TDB 
  -9.214217871675748E+00  4.213429657563929E+01  1.170432582974887E+00
  -2.463254110425761E-03 -4.162406980384625E-04  7.715048212855740E-04
2452659.500000000 = A.D. 2003-Jan-20 00:00:00.0000 TDB 
  -9.226533717147872E+00  4.213221342898910E+01  1.174290053035402E+00
  -2.463084041991559E-03 -4.170179492680138E-04  7.714831912400319E-04
2452664.500000000 = A.D. 2003-Jan-25 00:00:00.0000 TDB 
  -9.238848711731375E+00  4.213012639627431E+01  1.178147414770472E+00
  -2.462913754983743E-03 -4.177951238683719E-04  7.714614911061196E-04
2452669.500000000 = A.D. 2003-Jan-30 00:00:00.0000 TDB 
  -9.251162854333478E+00  4.212803547787825E+01  1.182004667829670E+00
  -2.462743249436796E-03 -4.185722217715361E-04  7.714397208928743E-04
2452674.500000000 = A.D. 2003-Feb-04 00:00:00.0000 TDB 
  -9.263476143861569E+00  4.212594067418454E+01  1.185861811862612E+00
  -2.462572525385082E-03 -4.193492429097042E-04  7.714178806093282E-04
2452679.500000000 = A.D. 2003-Feb-09 00:00:00.0000 TDB 
  -9.275788579223210E+00  4.212384198557721E+01  1.189718846518992E+00
  -2.462401582863369E-03 -4.201261872153372E-04  7.713959702645291E-04
2452684.500000000 = A.D. 2003-Feb-14 00:00:00.0000 TDB 
  -9.288100159326143E+00  4.212173941244056E+01  1.193575771448506E+00
  -2.462230421906067E-03 -4.209030546209067E-04  7.713739898675154E-04
2452689.500000000 = A.D. 2003-Feb-19 00:00:00.0000 TDB 
  -9.300410883078268E+00  4.211963295515927E+01  1.197432586300929E+00
  -2.462059042547652E-03 -4.216798450590374E-04  7.713519394273313E-04
2452694.500000000 = A.D. 2003-Feb-24 00:00:00.0000 TDB 
  -9.312720749387676E+00  4.211752261411836E+01  1.201289290726054E+00
  -2.461887444822516E-03 -4.224565584625864E-04  7.713298189530219E-04
2452699.500000000 = A.D. 2003-Mar-01 00:00:00.0000 TDB 
  -9.325029757162609E+00  4.211540838970315E+01  1.205145884373752E+00
  -2.461715628765309E-03 -4.232331947640761E-04  7.713076284536368E-04
2452704.500000000 = A.D. 2003-Mar-06 00:00:00.0000 TDB 
  -9.337337905311500E+00  4.211329028229933E+01  1.209002366893899E+00
  -2.461543594410451E-03 -4.240097538964974E-04  7.712853679382260E-04
2452709.500000000 = A.D. 2003-Mar-11 00:00:00.0000 TDB 
  -9.349645192742944E+00  4.211116829229291E+01  1.212858737936454E+00
  -2.461371341792414E-03 -4.247862357928424E-04  7.712630374158420E-04
2452714.500000000 = A.D. 2003-Mar-16 00:00:00.0000 TDB 
  -9.361951618365708E+00  4.210904242007024E+01  1.216714997151394E+00
  -2.461198870945679E-03 -4.255626403862450E-04  7.712406368955417E-04
2452719.500000000 = A.D. 2003-Mar-21 00:00:00.0000 TDB 
  -9.374257181088742E+00  4.210691266601800E+01  1.220571144188765E+00
  -2.461026181904659E-03 -4.263389676097415E-04  7.712181663863750E-04
2452724.500000000 = A.D. 2003-Mar-26 00:00:00.0000 TDB 
  -9.386561879821157E+00  4.210477903052319E+01  1.224427178698629E+00
  -2.460853274703804E-03 -4.271152173966278E-04  7.711956258974013E-04
2452729.500000000 = A.D. 2003-Mar-31 00:00:00.0000 TDB 
  -9.398865713472237E+00  4.210264151397321E+01  1.228283100331117E+00
  -2.460680149377547E-03 -4.278913896802434E-04  7.711730154376798E-04
2452734.500000000 = A.D. 2003-Apr-05 00:00:00.0000 TDB 
  -9.411168680951448E+00  4.210050011675566E+01  1.232138908736402E+00
  -2.460506805960314E-03 -4.286674843940185E-04  7.711503350162724E-04
2452739.500000000 = A.D. 2003-Apr-10 00:00:00.0000 TDB 
  -9.423470781168414E+00  4.209835483925865E+01  1.235994603564691E+00
  -2.460333244486484E-03 -4.294435014714826E-04  7.711275846422337E-04
2452744.500000000 = A.D. 2003-Apr-15 00:00:00.0000 TDB 
  -9.435772013032942E+00  4.209620568187047E+01  1.239850184466250E+00
  -2.460159464990461E-03 -4.302194408462496E-04  7.711047643246282E-04
2452749.500000000 = A.D. 2003-Apr-20 00:00:00.0000 TDB 
  -9.448072375455006E+00  4.209405264497980E+01  1.243705651091387E+00
  -2.459985467506648E-03 -4.309953024519667E-04  7.710818740725219E-04
2452754.500000000 = A.D. 2003-Apr-25 00:00:00.0000 TDB 
  -9.460371867344753E+00  4.209189572897566E+01  1.247561003090436E+00
  -2.459811252069350E-03 -4.317710862225950E-04  7.710589138949705E-04
2452759.500000000 = A.D. 2003-Apr-30 00:00:00.0000 TDB 
  -9.472670487612499E+00  4.208973493424742E+01  1.251416240113801E+00
  -2.459636818712927E-03 -4.325467920920330E-04  7.710358838010393E-04
2452764.500000000 = A.D. 2003-May-05 00:00:00.0000 TDB 
  -9.484968235168740E+00  4.208757026118469E+01  1.255271361811928E+00
  -2.459462167471700E-03 -4.333224199943252E-04  7.710127837997920E-04
2452769.500000000 = A.D. 2003-May-10 00:00:00.0000 TDB 
  -9.497265108924132E+00  4.208540171017752E+01  1.259126367835310E+00
  -2.459287298379906E-03 -4.340979698635768E-04  7.709896139002889E-04
2452774.500000000 = A.D. 2003-May-15 00:00:00.0000 TDB 
  -9.509561107789512E+00  4.208322928161623E+01  1.262981257834455E+00
  -2.459112211472049E-03 -4.348734416341672E-04  7.709663741116066E-04
2452779.500000000 = A.D. 2003-May-20 00:00:00.0000 TDB 
  -9.521856230675883E+00  4.208105297589145E+01  1.266836031459956E+00
  -2.458936906782409E-03 -4.356488352404524E-04  7.709430644428105E-04
2452784.500000000 = A.D. 2003-May-25 00:00:00.0000 TDB 
  -9.534150476494425E+00  4.207887279339421E+01  1.270690688362429E+00
  -2.458761384345321E-03 -4.364241506169363E-04  7.709196849029714E-04
2452789.500000000 = A.D. 2003-May-30 00:00:00.0000 TDB 
  -9.546443844156483E+00  4.207668873451579E+01  1.274545228192548E+00
  -2.458585644195068E-03 -4.371993876982889E-04  7.708962355011572E-04
2452794.500000000 = A.D. 2003-Jun-04 00:00:00.0000 TDB 
  -9.558736332573575E+00  4.207450079964783E+01  1.278399650601022E+00
  -2.458409686366164E-03 -4.379745464190419E-04  7.708727162464531E-04
2452799.500000000 = A.D. 2003-Jun-09 00:00:00.0000 TDB 
  -9.571027940657402E+00  4.207230898918231E+01  1.282253955238607E+00
  -2.458233510892940E-03 -4.387496267140348E-04  7.708491271479338E-04
2452804.500000000 = A.D. 2003-Jun-14 00:00:00.0000 TDB 
  -9.583318667319825E+00  4.207011330351150E+01  1.286108141756114E+00
  -2.458057117809784E-03 -4.395246285181484E-04  7.708254682146791E-04
2452809.500000000 = A.D. 2003-Jun-19 00:00:00.0000 TDB 
  -9.595608511472877E+00  4.206791374302805E+01  1.289962209804381E+00
  -2.457880507151107E-03 -4.402995517663438E-04  7.708017394557722E-04
2452814.500000000 = A.D. 2003-Jun-24 00:00:00.0000 TDB 
  -9.607897472028766E+00  4.206571030812487E+01  1.293816159034307E+00
  -2.457703678951343E-03 -4.410743963936206E-04  7.707779408803023E-04
2452819.500000000 = A.D. 2003-Jun-29 00:00:00.0000 TDB 
  -9.620185547899878E+00  4.206350299919525E+01  1.297669989096837E+00
  -2.457526633244943E-03 -4.418491623350727E-04  7.707540724973603E-04
2452824.500000000 = A.D. 2003-Jul-04 00:00:00.0000 TDB 
  -9.632472737998761E+00  4.206129181663277E+01  1.301523699642950E+00
  -2.457349370066370E-03 -4.426238495258664E-04  7.707301343160414E-04
2452829.500000000 = A.D. 2003-Jul-09 00:00:00.0000 TDB 
  -9.644759041238144E+00  4.205907676083135E+01  1.305377290323688E+00
  -2.457171889450165E-03 -4.433984579013213E-04  7.707061263454490E-04
2452834.500000000 = A.D. 2003-Jul-14 00:00:00.0000 TDB 
  -9.657044456530924E+00  4.205685783218523E+01  1.309230760790109E+00
  -2.456994191430584E-03 -4.441729873964939E-04  7.706820485946623E-04
